NORAD_CAT_ID,OBJECT_NAME,OBJECT_TYPE,EPOCH,MEAN_MOTION,ECCENTRICITY,INCLINATION,RA_OF_ASC_NODE,ARG_OF_PERICENTER,MEAN_ANOMALY,BSTAR,MEAN_MOTION_DOT,MEAN_MOTION_DDOT,TLE_LINE0,TLE_LINE1,TLE_LINE2,SEMIMAJOR_AXIS,PERIOD,APOGEE,PERIGEE,DECAYED
52663.0,STARLINK-4037,PAYLOAD,2022-12-23 18:04:59,15.08836974,0.0003017,53.2184,15.1543,24.3885,335.725,0.00013829,1.913e-05,0.0,0 STARLINK-4037,1 52663U 22053H   22357.75347007  .00001913  00000-0  13829-3 0  9996,2 52663  53.2184  15.1543 0003017  24.3885 335.7250 15.08836974 34123,6917.89,95.438,541.842,537.668,0.0
52663.0,STARLINK-4037,PAYLOAD,2022-12-24 09:58:51,15.08840338,0.0003027,53.2183,12.1808,25.6138,334.5004,0.00014284,1.986e-05,0.0,0 STARLINK-4037,1 52663U 22053H   22358.41586880  .00001986  00000-0  14284-3 0  9990,2 52663  53.2183  12.1808 0003027  25.6138 334.5004 15.08840338 34223,6917.879,95.438,541.8380000000002,537.65,0.0
52663.0,STARLINK-4037,PAYLOAD,2022-12-24 17:55:47,15.08833119,0.0002997,53.2182,10.6938,23.4947,336.6182,2.1586e-05,5.5e-07,0.0,0 STARLINK-4037,1 52663U 22053H   22358.74707789  .00000055  00000-0  21586-4 0  9999,2 52663  53.2182  10.6938 0002997  23.4947 336.6182 15.08833119 34272,6917.901,95.438,541.84,537.693,0.0
52663.0,STARLINK-4037,PAYLOAD,2022-12-25 09:49:38,15.08837269,0.0003145,53.2177,7.7175,21.476,338.6363,1.5041e-05,-4.9e-07,0.0,0 STARLINK-4037,1 52663U 22053H   22359.40947584 -.00000049  00000-0  15041-4 0  9995,2 52663  53.2177   7.7175 0003145  21.4760 338.6363 15.08837269 34377,6917.889,95.438,541.929,537.578,0.0
52663.0,STARLINK-4037,PAYLOAD,2022-12-25 17:46:33,15.08854194,0.0002759,53.2176,6.2339,19.3616,340.7480000000001,0.00012645,1.725e-05,0.0,0 STARLINK-4037,1 52663U 22053H   22359.74066019  .00001725  00000-0  12645-3 0  9994,2 52663  53.2176   6.2339 0002759  19.3616 340.7480 15.08854194 34424,6917.837,95.437,541.611,537.793,0.0
52663.0,STARLINK-4037,PAYLOAD,2022-12-26 12:51:10,15.08849581,0.0002951,53.2174,2.6651,23.0432,337.0692,8.2309e-05,1.022e-05,0.0,0 STARLINK-4037,1 52663U 22053H   22360.53554012  .00001022  00000-0  82309-4 0  9993,2 52663  53.2174   2.6651 0002951  23.0432 337.0692 15.08849581 34542,6917.851,95.437,541.758,537.675,0.0
52663.0,STARLINK-4037,PAYLOAD,2022-12-27 06:20:24,15.08855744,0.0003019,53.2178,359.3942,23.9199,336.1933,0.0001154,1.549e-05,0.0,0 STARLINK-4037,1 52663U 22053H   22361.26417100  .00001549  00000-0  11540-3 0  9992,2 52663  53.2178 359.3942 0003019  23.9199 336.1933 15.08855744 34654,6917.831999999999,95.437,541.786,537.609,0.0
52663.0,STARLINK-4037,PAYLOAD,2022-12-27 17:28:06,15.08852404,0.0003088,53.2172,357.3129,21.8983,338.2141,0.00013755,1.902e-05,0.0,0 STARLINK-4037,1 52663U 22053H   22361.72784895  .00001902  00000-0  13755-3 0  9994,2 52663  53.2172 357.3129 0003088  21.8983 338.2141 15.08852404 34729,6917.842,95.437,541.844,537.571,0.0
52663.0,STARLINK-4037,PAYLOAD,2022-12-28 09:21:57,15.08840738,0.0003113,53.2189,354.3371,30.3774,329.7398,6.0602e-05,6.76e-06,0.0,0 STARLINK-4037,1 52663U 22053H   22362.39025358  .00000676  00000-0  60602-4 0  9991,2 52663  53.2189 354.3371 0003113  30.3774 329.7398 15.08840738 34822,6917.878000000002,95.438,541.8969999999998,537.59,0.0
52663.0,STARLINK-4037,PAYLOAD,2022-12-28 23:40:27,15.0883008,0.0003249,53.2167,351.6627,19.8405,340.2713,-0.00015008,-2.676e-05,0.0,0 STARLINK-4037,1 52663U 22053H   22362.98642633 -.00002676  00000-0 -15008-3 0  9990,2 52663  53.2167 351.6627 0003249  19.8405 340.2713 15.08830080 34913,6917.911,95.438,542.023,537.528,0.0
52663.0,STARLINK-4037,PAYLOAD,2022-12-29 10:48:09,15.0882635,0.0003103999999999,53.2174,349.5808,22.9422,337.1709,-0.00020734,-3.586e-05,0.0,0 STARLINK-4037,1 52663U 22053H   22363.45011356 -.00003586  00000-0 -20734-3 0  9998,2 52663  53.2174 349.5808 0003104  22.9422 337.1709 15.08826350 34984,6917.922,95.438,541.934,537.64,0.0
52663.0,STARLINK-4037,PAYLOAD,2022-12-30 02:42:01,15.08818273,0.0003116,53.2181,346.6072,17.4628,342.6471,-0.00010533,-1.964e-05,0.0,0 STARLINK-4037,1 52663U 22053H   22364.11252242 -.00001964  00000-0 -10533-3 0  9997,2 52663  53.2181 346.6072 0003116  17.4628 342.6471 15.08818273 35087,6917.946999999999,95.439,541.967,537.656,0.0
52663.0,STARLINK-4037,PAYLOAD,2022-12-30 09:03:33,15.08826821,0.0003177999999999,53.2173,345.4171,21.0922,339.02,2.1267e-05,5e-07,0.0,0 STARLINK-4037,1 52663U 22053H   22364.37747674  .00000050  00000-0  21267-4 0  9993,2 52663  53.2173 345.4171 0003178  21.0922 339.0200 15.08826821 35124,6917.920999999999,95.438,541.984,537.587,0.0
52663.0,STARLINK-4037,PAYLOAD,2022-12-30 10:38:56,15.08831355,0.0003111,53.2176,345.1203,21.6647,338.4476,4.5873e-05,4.41e-06,0.0,0 STARLINK-4037,1 52663U 22053H   22364.44371376  .00000441  00000-0  45873-4 0  9996,2 52663  53.2176 345.1203 0003111  21.6647 338.4476 15.08831355 35134,6917.906999999997,95.438,541.924,537.62,0.0
52663.0,STARLINK-4037,PAYLOAD,2022-12-30 15:25:05,15.08841825,0.0003054,53.2176,344.2285,21.746,338.3661,6.061100000000001e-05,6.76e-06,0.0,0 STARLINK-4037,1 52663U 22053H   22364.64242769  .00000676  00000-0  60611-4 0  9998,2 52663  53.2176 344.2285 0003054  21.7460 338.3661 15.08841825 35165,6917.875,95.437,541.8530000000002,537.627,0.0
52663.0,STARLINK-4037,PAYLOAD,2022-12-31 05:43:33,15.08859184,0.000316,53.2171,341.5519,22.4008,337.7122,0.00064291,9.964e-05,0.0,0 STARLINK-4037,1 52663U 22053H   22365.23858549  .00009964  00000-0  64291-3 0  9999,2 52663  53.2171 341.5519 0003160  22.4008 337.7122 15.08859184 35256,6917.821999999999,95.436,541.873,537.501,0.0
52663.0,STARLINK-4037,PAYLOAD,2022-12-31 10:29:43,15.08856737,0.0003266,53.217,340.6606,21.4205,338.6923,0.00054465,8.395e-05,0.0,0 STARLINK-4037,1 52663U 22053H   22365.43730581  .00008395  00000-0  54465-3 0  9995,2 52663  53.2170 340.6606 0003266  21.4205 338.6923 15.08856737 35280,6917.829000000002,95.436,541.9540000000002,537.435,0.0
52663.0,STARLINK-4037,PAYLOAD,2022-12-31 15:15:52,15.08851836,0.0003263,53.2158,339.7683,20.1023,340.0097,0.00042705,6.517e-05,0.0,0 STARLINK-4037,1 52663U 22053H   22365.63602633  .00006517  00000-0  42705-3 0  9991,2 52663  53.2158 339.7683 0003263  20.1023 340.0097 15.08851836 35319,6917.844,95.437,541.967,537.452,0.0
52663.0,STARLINK-4037,PAYLOAD,2023-01-01 05:34:21,15.08837003,0.0003193,53.2179,337.0912,24.7871,335.3274,-6.1352e-05,-1.265e-05,0.0,0 STARLINK-4037,1 52663U 22053H   23001.23219262 -.00001265  00000-0 -61352-4 0  9994,2 52663  53.2179 337.0912 0003193  24.7871 335.3274 15.08837003 35405,6917.89,95.438,541.9630000000002,537.5459999999998,0.0
52663.0,STARLINK-4037,PAYLOAD,2023-01-01 08:45:08,15.08825025,0.0003125,53.2172,336.4989,20.1984,339.9131,-0.00021959,-3.781e-05,0.0,0 STARLINK-4037,1 52663U 22053H   23001.36467935 -.00003781  00000-0 -21959-3 0  9993,2 52663  53.2172 336.4989 0003125  20.1984 339.9131 15.08825025 35420,6917.926,95.439,541.953,537.629,0.0
52663.0,STARLINK-4037,PAYLOAD,2023-01-01 15:06:42,15.08819052,0.0003018,53.218,335.3091,19.9675,340.1434,-8.576200000000001e-05,-1.653e-05,0.0,0 STARLINK-4037,1 52663U 22053H   23001.62965392 -.00001653  00000-0 -85762-4 0  9991,2 52663  53.2180 335.3091 0003018  19.9675 340.1434 15.08819052 35462,6917.944,95.439,541.8969999999998,537.722,0.0
52663.0,STARLINK-4037,PAYLOAD,2023-01-02 02:14:23,15.0884033,0.000306,53.2164,333.2248,21.2742,338.8377,-0.00012514,-2.28e-05,0.0,0 STARLINK-4037,1 52663U 22053H   23002.09332314 -.00002280  00000-0 -12514-3 0  9996,2 52663  53.2164 333.2248 0003060  21.2742 338.8377 15.08840330 35534,6917.879,95.438,541.861,537.628,0.0
52663.0,STARLINK-4037,PAYLOAD,2023-01-02 10:11:17,15.08851704,0.0003034,53.218,331.7398,21.3573,338.7545,-6.5862e-05,-1.337e-05,0.0,0 STARLINK-4037,1 52663U 22053H   23002.42451359 -.00001337  00000-0 -65862-4 0  9991,2 52663  53.2180 331.7398 0003034  21.3573 338.7545 15.08851704 35583,6917.845,95.437,541.808,537.611,0.0
52663.0,STARLINK-4037,PAYLOAD,2023-01-02 14:57:26,15.08857425,0.000307,53.2177,330.847,20.5834,339.5282,-4.1845e-05,-9.55e-06,0.0,0 STARLINK-4037,1 52663U 22053H   23002.62322774 -.00000955  00000-0 -41845-4 0  9991,2 52663  53.2177 330.8470 0003070  20.5834 339.5282 15.08857425 35618,6917.8269999999975,95.436,541.816,537.568,0.0
52663.0,STARLINK-4037,PAYLOAD,2023-01-03 03:40:32,15.08837465,0.0003009,53.2178,328.4681,17.884,342.2258,0.00011635,1.564e-05,0.0,0 STARLINK-4037,1 52663U 22053H   23003.15315648  .00001564  00000-0  11635-3 0  9990,2 52663  53.2178 328.4681 0003009  17.8840 342.2258 15.08837465 35698,6917.888000000001,95.438,541.835,537.672,0.0
52663.0,STARLINK-4037,PAYLOAD,2023-01-03 10:02:05,15.08830301,0.0003128,53.2181,327.2787,19.8611,340.2503,0.00013471,1.855e-05,0.0,0 STARLINK-4037,1 52663U 22053H   23003.41812359  .00001855  00000-0  13471-3 0  9993,2 52663  53.2181 327.2787 0003128  19.8611 340.2503 15.08830301 35734,6917.91,95.438,541.939,537.611,0.0
52663.0,STARLINK-4037,PAYLOAD,2023-01-04 14:39:01,15.08838653,0.0003375,53.2186,321.9262,24.2395,335.8756,0.00033161,4.993e-05,0.0,0 STARLINK-4037,1 52663U 22053H   23004.61043874  .00004993  00000-0  33161-3 0  9998,2 52663  53.2186 321.9262 0003375  24.2395 335.8756 15.08838653 35919,6917.885,95.438,542.0840000000002,537.415,0.0
52663.0,STARLINK-4037,PAYLOAD,2023-01-05 03:22:05,15.088640599999998,0.0002943,53.2179,319.5463,24.6137,335.4995,0.00021531,3.142e-05,0.0,0 STARLINK-4037,1 52663U 22053H   23005.14033892  .00003142  00000-0  21531-3 0  9999,2 52663  53.2179 319.5463 0002943  24.6137 335.4995 15.08864060 35995,6917.807,95.436,541.7080000000002,537.636,0.0
52663.0,STARLINK-4037,PAYLOAD,2023-01-06 06:23:39,15.08847775,0.0002892,53.2182,314.4909,6.7638,353.3393,6.8462e-05,8.01e-06,0.0,0 STARLINK-4037,1 52663U 22053H   23006.26642670  .00000801  00000-0  68462-4 0  9997,2 52663  53.2182 314.4909 0002892   6.7638 353.3393 15.08847775 36163,6917.857,95.437,541.722,537.721,0.0
